satname,norad_id,inclination_deg,eccentricity,mean_motion_rev_per_day,perigee_km,apogee_km,l1,l2
STARLINK-1443,45660,53.0561,0.0001627,15.06407338,546.0623175651554,548.3158186677201,1 45660U 20035D   25360.37687151  .00002790  00000+0  20609-3 0  9992,2 45660  53.0561  35.7352 0001627  86.0012 274.1163 15.06407338307686
STARLINK-1446,45663,53.0274,0.0005125,15.39324745,444.60644948107984,451.60334742699433,1 45663U 20035G   25361.24656014  .00023313  00000+0  59654-3 0  9992,2 45663  53.0274 342.6069 0005125  52.4337 307.7131 15.39324745308505
STARLINK-1448,45665,53.055,0.0001364,15.06395814,546.2797681618422,548.1690067483396,1 45665U 20035J   25361.77384102  .00000151  00000+0  29058-4 0  9999,2 45665  53.0550  29.4592 0001364  90.6046 269.5099 15.06395814307884
STARLINK-1451,45668,53.0561,0.0001228,15.06394666,546.3774711178321,548.078340738728,1 45668U 20035M   25361.77756480  .00001937  00000+0  14891-3 0  9995,2 45668  53.0561  29.7631 0001228  84.4299 275.6830 15.06394666307892
STARLINK-1452,45669,53.0397,0.0002381,15.33121415,464.87639558538194,468.13581463203536,1 45669U 20035N   25361.72564992  .00098266  00000+0  30000-2 0  9996,2 45669  53.0397   1.4737 0002381 161.5447 198.5640 15.33121415308283
STARLINK-1453,45670,53.0545,0.0002576,15.37169155,452.7250028094322,456.24516970827244,1 45670U 20035P   25361.69896699  .00115911  00000+0  31014-2 0  9999,2 45670  53.0545 356.0652 0002576  72.1961 287.9322 15.37169155308242
STARLINK-1454,45671,53.0554,0.0001476,15.06397904,546.1957994885206,548.2401642791729,1 45671U 20035Q   25361.40156144  .00001474  00000+0  11783-3 0  9993,2 45671  53.0554  31.1359 0001476  88.9271 271.1887 15.06397904307820
STARLINK-1456,45673,53.0542,0.0001577,15.35560468,458.17800020915274,460.3345140424499,1 45673U 20035S   25361.91671295  .00118907  00000+0  33487-2 0  9994,2 45673  53.0542  27.0029 0001577  78.8862 331.7678 15.35560468  5783
STARLINK-1457,45674,53.0517,0.0010168,15.51012113,406.8637447819465,420.6757663600756,1 45674U 20035T   25361.91671295  .00179027  00000+0  29644-2 0  9995,2 45674  53.0517  15.1888 0010168  22.7897 244.6469 15.51012113  5898
STARLINK-1458,45675,53.0551,0.0001807,15.06403464,545.9495327315371,548.4523498635217,1 45675U 20035U   25361.81070433  .00002965  00000+0  21787-3 0  9999,2 45675  53.0551  29.2950 0001807  88.0836 272.0360 15.06403464307861
STARLINK-1460,45676,53.0553,0.0001696,15.06396544,546.0476091889159,548.3966910126292,1 45676U 20035V   25361.31678406  .00000799  00000+0  72534-4 0  9999,2 45676  53.0553  31.5114 0001696 113.7754 246.3413 15.06396544307787
STARLINK-1392,45677,53.0555,0.000146,15.06394804,546.2163797611774,548.2385861902058,1 45677U 20035W   25361.46054510  .00001844  00000+0  14271-3 0  9995,2 45677  53.0555  30.8704 0001460  94.7388 265.3768 15.06394804307845
STARLINK-1394,45679,53.0544,0.0001389,15.36490825,455.54658523123817,457.4452462552317,1 45679U 20035Y   25361.91671295  .00074674  00000+0  20572-2 0  9993,2 45679  53.0544  17.0889 0001389  77.2656  62.3496 15.36490825  5784
STARLINK-1402,45685,53.053,0.0006328,15.32944758,462.7003245415335,471.3635703614282,1 45685U 20035AE  25361.70213097  .00096926  00000+0  29750-2 0  9990,2 45685  53.0530   3.1444 0006328  10.9886 349.1251 15.32944758308265
STARLINK-1404,45686,53.0551,0.0001518,15.06398263,546.1656128789919,548.2681503174454,1 45686U 20035AF  25361.74896773  .00003425  00000+0  24873-3 0  9997,2 45686  53.0551  19.5729 0001518  92.5041 267.6121 15.06398263308031
STARLINK-1413,45689,53.0552,0.000127,15.06401667,546.3269302100789,548.0859674460817,1 45689U 20035AJ  25361.76738902 -.00000351  00000+0 -46694-5 0  9995,2 45689  53.0552  19.4884 0001270 102.5329 257.5802 15.06401667307948
STARLINK-1417,45693,53.0541,0.0004031,15.0827027,538.6960740196273,544.2746735773844,1 45693U 20035AN  25361.34050957 -.00023353  00000+0 -14763-2 0  9997,2 45693  53.0541  21.1441 0004031  31.8344 328.2888 15.08270270307967
STARLINK-1420,45695,53.0543,0.0001351,15.06403879,546.2640564034327,548.1352823715015,1 45695U 20035AQ  25361.69826918  .00005958  00000+0  41850-3 0  9992,2 45695  53.0543 359.7898 0001351  73.8118 286.3019 15.06403879308304
STARLINK-1422,45696,53.0546,0.0001417,15.06399988,546.2302728206778,548.19291661242,1 45696U 20035AR  25361.77476407  .00000618  00000+0  60388-4 0  9992,2 45696  53.0546  19.4588 0001417  80.1964 279.9185 15.06399988308023
STARLINK-1351,45697,53.0551,0.0001391,15.09751501,535.9968070771392,537.9205867000128,1 45697U 20035AS  25361.27578571  .00025620  00000+0  15820-2 0  9992,2 45697  53.0551   1.5892 0001391  84.6456 275.4693 15.09751501308241
STARLINK-1398,45699,53.049,0.0006184,15.63265039,374.05495691829856,382.4112354532608,1 45699U 20035AU  25361.84740440  .00177123  00000+0  18596-2 0  9992,2 45699  53.0490 298.2797 0006184  74.3191 285.8505 15.63265039309188
STARLINK-1400,45700,53.0561,0.0001628,15.06393661,546.1035362202811,548.3584360365649,1 45700U 20035AV  25361.26058292  .00002090  00000+0  15921-3 0  9998,2 45700  53.0561   1.7698 0001628  96.6083 263.5091 15.06393661308230
STARLINK-1403,45701,53.0565,0.0001832,15.06401682,545.9376799439233,548.4751257667294,1 45701U 20035AW  25361.22371476  .00001969  00000+0  15104-3 0  9994,2 45701  53.0565   1.9340 0001832 114.2350 245.8831 15.06401682308229
STARLINK-1407,45703,53.0409,0.0005405,15.47065054,421.63980322064526,428.9943370704732,1 45703U 20035AY  25361.91671295  .00045719  00000+0  89181-3 0  9991,2 45703  53.0409 301.9723 0005405 223.0809 273.5757 15.47065054  5902
STARLINK-1411,45706,53.0507,0.0002064,15.50197698,414.74601341944526,417.55069441354135,1 45706U 20035BB  25361.61447863  .00065175  00000+0  11340-2 0  9992,2 45706  53.0507 330.3059 0002064  94.5838 265.5405 15.50197698308702
STARLINK-1423,45710,53.0562,0.0001803,15.06326772,546.1873194916034,548.6846811155128,1 45710U 20035BF  25361.71394801  .00016790  00000+0  11456-2 0  9998,2 45710  53.0562 359.7307 0001803  86.6340 273.4855 15.06326772308300
STARLINK-1433,45711,53.055,0.0001147,15.06400442,546.4158659480536,548.0045405964838,1 45711U 20035BG  25361.69552179  .00005236  00000+0  37016-3 0  9994,2 45711  53.0550 359.8138 0001147  86.2120 273.9000 15.06400442308296
STARLINK-1434,45712,53.047,0.0001906,15.19391392,506.3663536952781,508.99122667449683,1 45712U 20035BH  25361.30914528  .00050412  00000+0  23513-2 0  9995,2 45712  53.0470 353.3109 0001906 337.0350  23.0559 15.19391392308368
STARLINK-1465,45731,53.0529,0.000129,15.06398671,546.3222606454437,548.1090016242779,1 45731U 20038B   25361.86138409  .00000164  00000+0  29911-4 0  9995,2 45731  53.0529 199.0647 0001290  87.5185 272.5951 15.06398671305362
STARLINK-1471,45735,53.0491,0.0001276,15.43718771,434.27593867350515,436.0146883199095,1 45735U 20038F   25361.51111096  .00025880  00000+0  57150-3 0  9991,2 45735  53.0491 126.4160 0001276  82.3525 277.7625 15.43718771306367
STARLINK-1474,45738,53.0316,0.0003306,15.79555465,329.48096956102654,333.91751328385544,1 45738U 20038J   25361.91671295  .00143906  00000+0  76497-3 0  9995,2 45738  53.0316  69.0043 0003306  41.3273  25.1507 15.79555465  6032
STARLINK-1480,45741,53.0536,0.0001645,15.3241439,467.48497307188063,469.7375532504593,1 45741U 20038M   25361.91671295  .01792398  00000+0  50743-1 0  9999,2 45741  53.0536 197.5122 0001645  84.6708 267.8001 15.32414390  5787
STARLINK-1500,45744,53.0371,0.0002192,15.30568451,472.6131481723414,475.61717552009577,1 45744U 20038Q   25361.75397877  .00028148  00000+0  94797-3 0  9998,2 45744  53.0371 169.1177 0002192  70.6274 289.4962 15.30568451305788
STARLINK-1504,45746,53.0256,5.4e-05,15.47049375,424.99564872452265,425.7304267285972,1 45746U 20038S   25360.65383685  .00074185  00000+0  14379-2 0  9999,2 45746  53.0256 133.1041 0000540  46.4477 313.6574 15.47049375306185
STARLINK-1506,45747,53.0734,0.0003221,15.23587662,492.8158418335788,497.2435358145194,1 45747U 20038T   25361.76264278  .00010985  00000+0  46635-3 0  9998,2 45747  53.0734 174.4233 0003221  68.6170 291.5171 15.23587662305718
STARLINK-1464,45751,53.0534,0.0001389,15.06406178,546.2306950381053,548.1545516074648,1 45751U 20038X   25361.77844247  .00001387  00000+0  11194-3 0  9992,2 45751  53.0534 179.4399 0001389  92.8849 267.2299 15.06406178305640
STARLINK-1477,45754,53.0515,0.0006886,15.09683043,532.4058641491647,541.9296218412173,1 45754U 20038AA  25361.78746049  .00026656  00000+0  16474-2 0  9998,2 45754  53.0515 178.6373 0006886 136.4530 223.7005 15.09683043305658
STARLINK-1478,45755,53.0538,0.00017,15.10329987,534.0175732475045,536.3681053928731,1 45755U 20038AB  25361.91671295  .00083975  00000+0  50222-2 0  9990,2 45755  53.0538 178.7758 0001700  82.9420 148.8671 15.10329987  5834
STARLINK-1484,45756,53.0131,0.0003018,15.72872543,348.66116958544717,352.72269072768904,1 45756U 20038AC  25361.91671295  .00112290  00000+0  80471-3 0  9994,2 45756  53.0131  59.4176 0003018  25.8334 294.4775 15.72872543  6009
STARLINK-1493,45759,53.0543,0.000146,15.06401138,546.1969697541363,548.2191705146151,1 45759U 20038AF  25361.80056328  .00001269  00000+0  10409-3 0  9996,2 45759  53.0543 179.3388 0001460  94.8687 265.2469 15.06401138305634
STARLINK-1494,45760,53.0519,0.0003362,15.56604612,395.2142611226509,399.7701942153353,1 45760U 20038AG  25361.70915169  .00049872  00000+0  69097-3 0  9993,2 45760  53.0519 145.5106 0003362 185.9676 174.1296 15.56604612306112
STARLINK-1502,45764,53.0541,0.0001356,15.06406887,546.2513759533358,548.1295247578719,1 45764U 20038AL  25361.76738527  .00001718  00000+0  13416-3 0  9995,2 45764  53.0541 179.4910 0001356  83.7604 276.3540 15.06406887305640
STARLINK-1470,45772,53.0505,0.0005545,15.21905914,496.27813785295075,503.9060939424817,1 45772U 20038AU  25361.77567730  .00072469  00000+0  31247-2 0  9993,2 45772  53.0505 146.5299 0005545 120.7778 239.3764 15.21905914306103
